NORAD_CAT_ID,OBJECT_NAME,OBJECT_TYPE,EPOCH,MEAN_MOTION,ECCENTRICITY,INCLINATION,RA_OF_ASC_NODE,ARG_OF_PERICENTER,MEAN_ANOMALY,BSTAR,MEAN_MOTION_DOT,MEAN_MOTION_DDOT,TLE_LINE0,TLE_LINE1,TLE_LINE2,SEMIMAJOR_AXIS,PERIOD,APOGEE,PERIGEE,DECAYED
53259.0,STARLINK-4140,PAYLOAD,2024-04-20 05:02:47,15.08860899,0.000167,53.2187,44.4617,136.6281,223.4843,0.0005463,8.422e-05,0.0,0 STARLINK-4140,1 53259U 22086T   24111.21026990  .00008422  00000-0  54630-3 0  9997,2 53259  53.2187  44.4617 0001670 136.6281 223.4843 15.08860899 96958,6917.817,95.436,540.837,538.526,0.0
53259.0,STARLINK-4140,PAYLOAD,2024-04-21 01:42:48,15.08848376,0.0001146,53.2187,40.6013,122.9505,237.1597,-7.7888e-05,-1.527e-05,0.0,0 STARLINK-4140,1 53259U 22086T   24112.07139712 -.00001527  00000-0 -77888-4 0  9991,2 53259  53.2187  40.6013 0001146 122.9505 237.1597 15.08848376 97080,6917.855,95.437,540.513,538.927,0.0
53259.0,STARLINK-4140,PAYLOAD,2024-04-21 19:12:04,15.08838164,0.000141,53.2184,37.3281,93.0794,267.036,-0.0001324,-2.394e-05,0.0,0 STARLINK-4140,1 53259U 22086T   24112.80004631 -.00002394  00000-0 -13240-3 0  9997,2 53259  53.2184  37.3281 0001410  93.0794 267.0360 15.08838164 97195,6917.886,95.438,540.726,538.776,0.0
53259.0,STARLINK-4140,PAYLOAD,2024-04-21 22:22:50,15.08838409,0.0001399,53.2177,36.7345,75.2376,284.8771,-0.0001162,-2.137e-05,0.0,0 STARLINK-4140,1 53259U 22086T   24112.93252651 -.00002137  00000-0 -11620-3 0  9993,2 53259  53.2177  36.7345 0001399  75.2376 284.8771 15.08838409 97392,6917.885,95.438,540.718,538.782,0.0
53259.0,STARLINK-4140,PAYLOAD,2024-04-22 01:33:35,15.08840441,0.0001679,53.2185,36.1389,91.0118,269.1066,-6.2075e-05,-1.276e-05,0.0,0 STARLINK-4140,1 53259U 22086T   24113.06499978 -.00001276  00000-0 -62075-4 0  9997,2 53259  53.2185  36.1389 0001679  91.0118 269.1066 15.08840441 97239,6917.879,95.438,540.906,538.583,0.0
53259.0,STARLINK-4140,PAYLOAD,2024-04-22 04:44:22,15.08842686,0.0001594,53.2182,35.5414,93.4928,266.6247,-1.7604e-05,-5.68e-06,0.0,0 STARLINK-4140,1 53259U 22086T   24113.19747849 -.00000568  00000-0 -17604-4 0  9995,2 53259  53.2182  35.5414 0001594  93.4928 266.6247 15.08842686 97437,6917.872,95.437,540.84,538.634,0.0
53259.0,STARLINK-4140,PAYLOAD,2024-04-22 19:02:51,15.08829397,0.00016,53.2191,32.8701,108.779,251.3376,0.00021238,3.093e-05,0.0,0 STARLINK-4140,1 53259U 22086T   24113.79364753  .00003093  00000-0  21238-3 0  9991,2 53259  53.2191  32.8701 0001600 108.7790 251.3376 15.08829397 97349,6917.913,95.438,540.885,538.671,0.0
53259.0,STARLINK-4140,PAYLOAD,2024-04-22 22:13:37,15.08825743,0.0001666,53.2186,32.267,112.2102,247.9067,0.00014566,2.03e-05,0.0,0 STARLINK-4140,1 53259U 22086T   24113.92612981  .00002030  00000-0  14566-3 0  9991,2 53259  53.2186  32.2670 0001666 112.2102 247.9067 15.08825743 97542,6917.924,95.438,540.941,538.636,0.0
53259.0,STARLINK-4140,PAYLOAD,2024-04-23 01:24:24,15.08824026,0.0001454,53.2181,31.6724,108.3705,251.7445,0.00010152,1.327e-05,0.0,0 STARLINK-4140,1 53259U 22086T   24114.05861202  .00001327  00000-0  10152-3 0  9993,2 53259  53.2181  31.6724 0001454 108.3705 251.7445 15.08824026 97388,6917.929,95.439,540.8,538.788,0.0
53259.0,STARLINK-4140,PAYLOAD,2024-04-23 22:04:24,15.08835717,0.0001475,53.218,27.8089,99.8231,260.2928,5.544e-05,5.94e-06,0.0,0 STARLINK-4140,1 53259U 22086T   24114.91973258  .00000594  00000-0  55440-4 0  9998,2 53259  53.2180  27.8089 0001475  99.8231 260.2928 15.08835717 97693,6917.893,95.438,540.779,538.738,0.0
53259.0,STARLINK-4140,PAYLOAD,2024-04-24 01:15:11,15.08840398,0.0001572,53.2186,27.2148,102.9771,257.1397,0.00012703,1.734e-05,0.0,0 STARLINK-4140,1 53259U 22086T   24115.05221074  .00001734  00000-0  12703-3 0  9997,2 53259  53.2186  27.2148 0001572 102.9771 257.1397 15.08840398 97531,6917.879,95.438,540.832,538.657,0.0
53259.0,STARLINK-4140,PAYLOAD,2024-04-24 21:55:12,15.08839052,0.0001559,53.2185,23.3513,112.3609,247.7548,0.00023319,3.425e-05,0.0,0 STARLINK-4140,1 53259U 22086T   24115.91333334  .00003425  00000-0  23319-3 0  9999,2 53259  53.2185  23.3513 0001559 112.3609 247.7548 15.08839052 97845,6917.883,95.438,540.827,538.67,0.0
53259.0,STARLINK-4140,PAYLOAD,2024-04-25 04:16:44,15.08841595,0.0001728,53.2196,22.1573,116.1565,243.9605,0.00022746,3.334e-05,0.0,0 STARLINK-4140,1 53259U 22086T   24116.17829220  .00003334  00000-0  22746-3 0  9994,2 53259  53.2196  22.1573 0001728 116.1565 243.9605 15.08841595 97703,6917.876,95.437,540.936,538.545,0.0
53259.0,STARLINK-4140,PAYLOAD,2024-04-25 21:45:58,15.08843261,0.0001485,53.2194,18.8831,97.4313,262.6848,6.3228e-05,7.19e-06,0.0,0 STARLINK-4140,1 53259U 22086T   24116.90693203  .00000719  00000-0  63228-4 0  9990,2 53259  53.2194  18.8831 0001485  97.4313 262.6848 15.08843261 97992,6917.87,95.437,540.763,538.708,0.0
53259.0,STARLINK-4140,PAYLOAD,2024-04-26 04:07:31,15.08838788,0.0001427,53.219,17.7024,103.1029,257.0122,-3.3276e-06,-3.41e-06,0.0,0 STARLINK-4140,1 53259U 22086T   24117.17189381 -.00000341  00000-0 -33276-5 0  9991,2 53259  53.2190  17.7024 0001427 103.1029 257.0122 15.08838788 97851,6917.884,95.438,540.736,538.762,0.0
53259.0,STARLINK-4140,PAYLOAD,2024-04-26 10:29:03,15.08853629,0.0001294,53.2196,16.5165,103.2396,256.8741,0.00017449,2.491e-05,0.0,0 STARLINK-4140,1 53259U 22086T   24117.43684364  .00002491  00000-0  17449-3 0  9999,2 53259  53.2196  16.5165 0001294 103.2396 256.8741 15.08853629 97899,6917.839,95.437,540.599,538.809,0.0
53259.0,STARLINK-4140,PAYLOAD,2024-04-27 10:19:48,15.08868485,0.0001695,53.2204,12.0506,131.8911,228.2226,0.00028261,4.216e-05,0.0,0 STARLINK-4140,1 53259U 22086T   24118.43042437  .00004216  00000-0  28261-3 0  9990,2 53259  53.2204  12.0506 0001695 131.8911 228.2226 15.08868485 98049,6917.793,95.436,540.831,538.486,0.0
53259.0,STARLINK-4140,PAYLOAD,2024-04-27 16:41:25,15.08812711,0.000128,53.2179,10.8644,109.706,250.407,-0.00010661,-1.983e-05,0.0,0 STARLINK-4140,1 53259U 22086T   24118.69543196 -.00001983  00000-0 -10661-3 0  9991,2 53259  53.2179  10.8644 0001280 109.7060 250.4070 15.08812711 98087,6917.964,95.439,540.714,538.943,0.0
53259.0,STARLINK-4140,PAYLOAD,2024-04-27 23:02:57,15.08817986,0.0001011,53.2181,9.6745,97.3297,262.781,-0.00011455,-2.109e-05,0.0,0 STARLINK-4140,1 53259U 22086T   24118.96038981 -.00002109  00000-0 -11455-3 0  9995,2 53259  53.2181   9.6745 0001011  97.3297 262.7810 15.08817986 98306,6917.948,95.439,540.512,539.113,0.0
53259.0,STARLINK-4140,PAYLOAD,2024-04-28 02:13:43,15.08826476,0.0001236,53.2178,9.0793,100.8327,259.2804,-3.9879e-05,-9.22e-06,0.0,0 STARLINK-4140,1 53259U 22086T   24119.09286394 -.00000922  00000-0 -39879-4 0  9995,2 53259  53.2178   9.0793 0001236 100.8327 259.2804 15.08826476 98142,6917.922,95.438,540.642,538.932,0.0
53259.0,STARLINK-4140,PAYLOAD,2024-04-28 10:10:38,15.08836698,0.0001561,53.2206,7.5941,87.5174,272.5997,1.0481e-05,-1.21e-06,0.0,0 STARLINK-4140,1 53259U 22086T   24119.42405922 -.00000121  00000-0  10481-4 0  9990,2 53259  53.2206   7.5941 0001561  87.5174 272.5997 15.08836698 98197,6917.89,95.438,540.835,538.676,0.0
53259.0,STARLINK-4140,PAYLOAD,2024-04-28 22:53:43,15.08837369,0.0001443,53.2197,5.2144,86.1228,273.9929,0.00013044,1.788e-05,0.0,0 STARLINK-4140,1 53259U 22086T   24119.95397709  .00001788  00000-0  13044-3 0  9997,2 53259  53.2197   5.2144 0001443  86.1228 273.9929 15.08837369 98455,6917.888,95.438,540.752,538.755,0.0
53259.0,STARLINK-4140,PAYLOAD,2024-04-29 02:04:29,15.08843614,0.0001501,53.2197,4.6193,90.6131,269.5033,4.2495e-05,3.88e-06,0.0,0 STARLINK-4140,1 53259U 22086T   24120.08645435  .00000388  00000-0  42495-4 0  9993,2 53259  53.2197   4.6193 0001501  90.6131 269.5033 15.08843614 98299,6917.869,95.437,540.773,538.696,0.0
53259.0,STARLINK-4140,PAYLOAD,2024-04-29 21:09:07,15.08835197,0.0001557,53.2177,1.0536,76.6189,283.4977,0.00031692,4.759e-05,0.0,0 STARLINK-4140,1 53259U 22086T   24120.88134134  .00004759  00000-0  31692-3 0  9992,2 53259  53.2177   1.0536 0001557  76.6189 283.4977 15.08835197 98410,6917.895,95.438,540.837,538.683,0.0
53259.0,STARLINK-4140,PAYLOAD,2024-04-29 22:44:31,15.08833208,0.0001386,53.2175,0.7569,72.6917,287.4227,0.00034313,5.176e-05,0.0,0 STARLINK-4140,1 53259U 22086T   24120.94758274  .00005176  00000-0  34313-3 0  9993,2 53259  53.2175   0.7569 0001386  72.6917 287.4227 15.08833208 98609,6917.901,95.438,540.725,538.807,0.0
53259.0,STARLINK-4140,PAYLOAD,2024-04-30 01:55:17,15.0883873,0.000134,53.2175,0.16,72.0993,288.0145,0.00023344,3.429e-05,0.0,0 STARLINK-4140,1 53259U 22086T   24121.08005968  .00003429  00000-0  23344-3 0  9995,2 53259  53.2175   0.1600 0001340  72.0993 288.0145 15.08838730 98620,6917.884,95.438,540.676,538.822,0.0
53259.0,STARLINK-4140,PAYLOAD,2024-04-30 20:59:55,15.0883176,0.0001263,53.2171,356.5911,79.5968,280.5166,0.00024062,3.543e-05,0.0,0 STARLINK-4140,1 53259U 22086T   24121.87494448  .00003543  00000-0  24062-3 0  9992,2 53259  53.2171 356.5911 0001263  79.5968 280.5166 15.08831760 98566,6917.906,95.438,540.644,538.897,0.0
53259.0,STARLINK-4140,PAYLOAD,2024-04-30 22:35:18,15.0882199,0.0001184,53.2172,356.2938,80.0581,280.0545,0.00042506,6.48e-05,0.0,0 STARLINK-4140,1 53259U 22086T   24121.94118902  .00006480  00000-0  42506-3 0  9994,2 53259  53.2172 356.2938 0001184  80.0581 280.0545 15.08821990 98754,6917.935,95.439,540.62,538.981,0.0
53259.0,STARLINK-4140,PAYLOAD,2024-05-01 08:07:35,15.08854275,0.0001294,53.2179,354.5086,74.2962,285.8172,0.00014039,1.948e-05,0.0,0 STARLINK-4140,1 53259U 22086T   24122.33860866  .00001948  00000-0  14039-3 0  9995,2 53259  53.2179 354.5086 0001294  74.2962 285.8172 15.08854275 98634,6917.837,95.437,540.597,538.807,0.0
53259.0,STARLINK-4140,PAYLOAD,2024-05-01 22:26:05,15.08837778,0.0001552,53.2177,351.8329,79.8051,280.3116,6.4846e-05,7.44e-06,0.0,0 STARLINK-4140,1 53259U 22086T   24122.93478166  .00000744  00000-0  64846-4 0  9994,2 53259  53.2177 351.8329 0001552  79.8051 280.3116 15.08837778 98906,6917.887,95.438,540.826,538.679,0.0
